satname,norad_id,inclination_deg,eccentricity,mean_motion_rev_per_day,perigee_km,apogee_km,l1,l2
STARLINK-1234,45190,53.0361,0.0004616,15.74742333,342.2609344710927,348.4680710584453,1 45190U 20012N   26159.49702540  .00081340  00000+0  54091-3 0  9995,2 45190  53.0361 237.0479 0004616 274.5122  85.5369 15.74742333350138
STARLINK-1269,45197,53.1569,8.96e-05,15.35067841,460.1062341942925,461.3317571887201,1 45197U 20012V   26159.76720649  .00045726  00000+0  13278-2 0  9991,2 45197  53.1569 335.5014 0000896 140.8359 219.2709 15.35067841348871
STARLINK-1154,45198,53.0425,0.0001762,15.63767291,375.5961237578458,377.97655874330303,1 45198U 20012W   26158.65872882  .00043439  00000+0  45914-3 0  9998,2 45198  53.0425 295.6157 0001762 354.6948   5.4046 15.63767291349280
STARLINK-1199,45201,53.1551,0.0001756,15.35064367,459.52840876055143,461.9302186099176,1 45201U 20012Z   26159.73828280  .00048679  00000+0  14124-2 0  9995,2 45201  53.1551 319.9050 0001756 273.4679  86.6123 15.35064367349112
STARLINK-1209,45206,53.0383,0.0007073,15.65895337,365.8915826135544,375.43843793728956,1 45206U 20012AE  26159.51524080  .00052930  00000+0  51195-3 0  9992,2 45206  53.0383 251.6233 0007073 245.2576 114.7703 15.65895337349080
STARLINK-1231,45212,53.0374,0.0002871,15.27900811,480.11906980089316,484.0582113637147,1 45212U 20012AL  26159.72637208  .00042059  00000+0  15278-2 0  9991,2 45212  53.0374 315.2831 0002871  71.4767 288.6543 15.27900811349119
STARLINK-1271,45217,53.1568,0.0002058,15.35110129,459.1859901334501,462.00081156644046,1 45217U 20012AR  26159.73565512 -.00051221  00000+0 -14810-2 0  9999,2 45217  53.1568 320.0410 0002058 347.5100  12.5851 15.35110129349112
STARLINK-1191,45222,53.156,0.000245,15.39276056,446.5763808716729,449.9213099359222,1 45222U 20012AW  26159.64846948  .00058098  00000+0  14678-2 0  9999,2 45222  53.1560 293.4290 0002450 215.0191 145.0653 15.39276056349482
STARLINK-1212,45223,53.0394,0.0001032,15.67260693,366.0487841144095,367.4409277294717,1 45223U 20012AX  26159.85139075  .00050419  00000+0  46250-3 0  9990,2 45223  53.0394 265.5685 0001032  96.4906 263.6227 15.67260693349873
STARLINK-1215,45225,53.1556,0.0002174,15.35268462,458.6365672210595,461.6098427581883,1 45225U 20012AZ  26159.08402848  .00053665  00000+0  15448-2 0  9998,2 45225  53.1556 297.3577 0002174 279.3686  80.7071 15.35268462349337
STARLINK-1221,45227,53.0638,0.0002468,15.44883702,430.03913957358964,433.40048489610854,1 45227U 20012BB  26159.82419189  .00012596  00000+0  27245-3 0  9995,2 45227  53.0638 196.7504 0002468 327.4204  32.6650 15.44883702350788
STARLINK-1222,45228,53.0525,0.0002286,15.55178434,400.08413769844174,403.1838489966003,1 45228U 20012BC  26159.46586810  .00026162  00000+0  38654-3 0  9992,2 45228  53.0525 265.7539 0002286  13.8980 346.2093 15.55178434349722
STARLINK-1226,45229,53.1562,0.0002916,15.4425622,431.5781074613533,435.5506917175935,1 45229U 20012BD  26159.62917095  .00064991  00000+0  13888-2 0  9997,2 45229  53.1562 290.7986 0002916 281.4384  78.6295 15.44256220349414
STARLINK-1227,45230,53.1537,0.0002981,15.4435047,431.2567708011902,435.31774194283935,1 45230U 20012BE  26159.50952858  .00062460  00000+0  13312-2 0  9993,2 45230  53.1537 291.4719 0002981 269.9873  90.0792 15.44350470349519
STARLINK-1246,45235,53.1552,0.0002145,15.35052698,459.29702735963565,462.2309158764592,1 45235U 20012BK  26159.77356845  .00047686  00000+0  13845-2 0  9995,2 45235  53.1552 335.0970 0002145 219.2842 140.8005 15.35052698348938
STARLINK-1270,45237,53.0405,0.0002586,15.62577896,378.4659822381291,381.9614012158909,1 45237U 20012BM  26159.48525150  .00090566  00000+0  99060-3 0  9991,2 45237  53.0405 268.7832 0002586 305.3292  54.7479 15.62577896349795
STARLINK-1279,45360,53.0373,0.0006338,15.74992955,340.3903256705489,348.9121320294389,1 45360U 20019A   26159.85462156  .00079217  00000+0  52106-3 0  9992,2 45360  53.0373  10.0397 0006338 116.8759 243.2908 15.74992955344968
STARLINK-1301,45361,53.0351,7.24e-05,15.80411338,328.79092792620213,329.76216140746965,1 45361U 20019B   26159.91670139  .00121823  00000+0  62509-3 0  9991,2 45361  53.0351  12.2552 0000724  90.0390  81.3313 15.80411338  5984
STARLINK-1262,45366,53.1534,0.0003941,15.34027198,461.11509880087124,466.5079226170128,1 45366U 20019G   26159.54985988  .00046044  00000+0  13815-2 0  9992,2 45366  53.1534 102.6039 0003941  78.0535 282.0909 15.34027198343676
STARLINK-1273,45367,53.0444,0.000511,15.57242983,392.17898164224243,399.1017821265277,1 45367U 20019H   26159.01203746  .00066570  00000+0  89634-3 0  9999,2 45367  53.0444  80.8008 0005110  70.0406 290.1155 15.57242983343914
STARLINK-1277,45369,53.0421,0.0004484,15.64540633,371.5323060309156,377.58812489374304,1 45369U 20019K   26159.47506488  .00091010  00000+0  92133-3 0  9995,2 45369  53.0421  72.5438 0004484  58.5455 301.5997 15.64540633344074
STARLINK-1281,45370,53.1577,0.0005024,15.35008741,457.4586021867326,464.3304610697123,1 45370U 20019L   26159.56106988  .00025026  00000+0  73484-3 0  9990,2 45370  53.1577 102.1772 0005024  71.3973 288.7575 15.35008741343680
STARLINK-1300,45374,53.1578,0.0004387,15.35462532,456.54730049650334,462.5466844314906,1 45374U 20019Q   26159.57304938  .00038302  00000+0  11009-2 0  9995,2 45374  53.1578 102.0251 0004387  90.8646 269.2860 15.35462532343683
STARLINK-1302,45375,53.0455,0.0005205,15.67364798,362.9356318902228,369.9567429883473,1 45375U 20019R   26159.02324929  .00053320  00000+0  48632-3 0  9998,2 45375  53.0455  70.8342 0005205  72.3924 287.7660 15.67364798344059
STARLINK-1304,45376,53.0416,0.0005255,15.62873322,375.8109231904409,382.9130546277838,1 45376U 20019S   26159.47249463  .00055488  00000+0  60455-3 0  9991,2 45376  53.0416  69.9512 0005255  82.2885 277.8725 15.62873322344107
STARLINK-1305,45377,53.0376,0.0001927,15.71598885,353.0295532741602,355.62424486086,1 45377U 20019T   26159.42297509  .00058331  00000+0  44631-3 0  9999,2 45377  53.0376  48.6990 0001927 214.0066 146.0828 15.71598885344407
STARLINK-1319,45379,53.0375,0.000287,15.77551413,335.4532728186905,339.3079799362313,1 45379U 20019V   26159.83256979  .00080874  00000+0  47565-3 0  9998,2 45379  53.0375  38.3282 0002870  96.8134 263.3212 15.77551413344589
STARLINK-1266,45383,53.0463,0.0001363,15.65872017,369.8121443394566,371.6518860329961,1 45383U 20019Z   26159.42472625  .00040147  00000+0  39099-3 0  9998,2 45383  53.0463  55.1359 0001363 150.5020 209.6072 15.65872017344302
STARLINK-1267,45384,53.0439,0.000654,15.65390409,367.70151662509943,376.53084778742505,1 45384U 20019AA  26159.39264950  .00041936  00000+0  41563-3 0  9991,2 45384  53.0439  46.5196 0006540 113.3106 246.8598 15.65390409344422
STARLINK-1272,45386,53.0396,0.0006898,15.69947723,354.3992548078504,363.69387325278603,1 45386U 20019AC  26159.91670139 -.00043216  00000+0 -34957-3 0  9995,2 45386  53.0396  22.6863 0006898  97.4369 236.6196 15.69947723  6024
STARLINK-1274,45387,53.0205,0.0007317,15.62072084,376.7264006553387,386.61870595564596,1 45387U 20019AD  26159.91670139  .00077870  00000+0  86993-3 0  9994,2 45387  53.0205  21.9618 0007317 143.2259   7.5744 15.62072084  5990
STARLINK-1280,45388,53.0361,8.96e-05,15.82287534,323.3727808567028,324.57379902065986,1 45388U 20019AE  26159.91670139  .00109874  00000+0  51802-3 0  9996,2 45388  53.0361  30.1539 0000896  84.7220  33.5954 15.82287534  5981
STARLINK-1283,45389,53.0403,0.0002768,15.71679966,352.23186891108253,355.958832740499,1 45389U 20019AF  26159.81014274  .00059427  00000+0  45297-3 0  9997,2 45389  53.0403  22.2824 0002768 142.5043 217.6167 15.71679966344804
STARLINK-1284,45390,53.0407,0.0004176,15.69958593,356.20203141035836,361.82890115019563,1 45390U 20019AG  26158.93777145  .00060723  00000+0  49704-3 0  9992,2 45390  53.0407  50.4958 0004176  47.2857 312.8511 15.69958593344321
STARLINK-1297,45395,53.0415,0.0005887,15.68390707,359.5359036850541,367.4735126322403,1 45395U 20019AM  26159.84468487  .00052400  00000+0  45845-3 0  9999,2 45395  53.0415  45.0562 0005887  61.2655 298.8951 15.68390707343661
STARLINK-1307,45397,53.0525,0.0002165,15.56674231,395.8233289394493,398.75708892091643,1 45397U 20019AP  26159.00709215  .00036261  00000+0  50385-3 0  9998,2 45397  53.0525  55.1036 0002165 107.2304 252.8944 15.56674231344095
STARLINK-1255,45399,53.0362,0.0004811,15.65894895,367.4194309919949,373.9131295082516,1 45399U 20019AR  26159.81163660  .00043548  00000+0  42292-3 0  9991,2 45399  53.0362  19.0052 0004811 117.9374 242.2128 15.65894895344657
STARLINK-1260,45404,53.1561,0.0005386,15.37939356,448.524886672657,455.8825296835057,1 45404U 20019AW  26159.47280845  .00089260  00000+0  23395-2 0  9998,2 45404  53.1561  65.2914 0005386  91.2641 268.8981 15.37939356343904
STARLINK-1263,45405,53.1576,0.0004268,15.35024183,457.9297863841148,463.7675445481573,1 45405U 20019AX  26158.92321780  .00047900  00000+0  13917-2 0  9996,2 45405  53.1576  69.1263 0004268 104.4659 255.6817 15.35024183343807
STARLINK-1265,45406,53.1563,0.0004544,15.38298003,448.0388011596806,454.24524993809973,1 45406U 20019AY  26159.46490045  .00045625  00000+0  11939-2 0  9992,2 45406  53.1563  65.3116 0004544  81.7991 278.3529 15.38298003343902
STARLINK-1278,45408,53.0393,0.0005943,15.69212514,357.1455823125243,365.155899721497,1 45408U 20019BA  26158.97890813  .00060311  00000+0  50894-3 0  9999,2 45408  53.0393  48.2595 0005943  83.0126 277.1566 15.69212514344089
STARLINK-1296,45412,53.1549,0.0005494,15.38433785,446.98840022504737,454.4919704763097,1 45412U 20019BE  26158.98478710  .00050099  00000+0  13033-2 0  9998,2 45412  53.1549  67.2605 0005494  77.8718 282.2902 15.38433785343834
STARLINK-1309,45414,53.0613,0.000571,15.68288294,359.94855691654357,367.6478469171325,1 45414U 20019BG  26159.38153846  .00046129  00000+0  40622-3 0  9999,2 45414  53.0613  40.2189 0005710  56.7068 303.4494 15.68288294344211
